[ {"spaceTrack": {"CCSDS_OMM_VERS": "2.0", "COMMENT": "GENERATED VIA SPACE-TRACK.ORG API", "CREATION_DATE": "2020-08-23 22:36:09", "ORIGINATOR": "18 SPCS", "OBJECT_NAME": "STARLINK-1509", "OBJECT_ID": "2020-038AN", "CENTER_NAME": "EARTH", "REF_FRAME": "TEME", "TIME_SYSTEM": "UTC", "MEAN_ELEMENT_THEORY": "SGP4", "EPOCH": "2020-08-23 22:00:00.999936", "MEAN_MOTION": 15.55581483, "ECCENTRICITY": 9.21e-05, "INCLINATION": 52.9998, "RA_OF_ASC_NODE": 305.8584, "ARG_OF_PERICENTER": 333.9793, "MEAN_ANOMALY": 355.9017, "EPHEMERIS_TYPE": 0, "CLASSIFICATION_TYPE": "U", "NORAD_CAT_ID": 45766, "ELEMENT_SET_NO": 999, "REV_AT_EPOCH": 1232, "BSTAR": -0.016879, "MEAN_MOTION_DOT": -0.01069342, "MEAN_MOTION_DDOT": 0, "SEMIMAJOR_AXIS": 6778.599, "PERIOD": 92.569, "APOAPSIS": 401.089, "PERIAPSIS": 399.84, "OBJECT_TYPE": "PAYLOAD", "RCS_SIZE": "LARGE", "COUNTRY_CODE": "US", "LAUNCH_DATE": "2020-06-13", "SITE": "AFETR", "DECAY_DATE": null, "DECAYED": 0, "FILE": 2807270, "GP_ID": 159985952, "TLE_LINE0": "0 STARLINK-1509", "TLE_LINE1": "1 45766U 20038AN  20236.91667824 -.01069342  00000-0 -16879-1 0  9996", "TLE_LINE2": "2 45766  52.9998 305.8584 0000921 333.9793 355.9017 15.55581483 12327"}, "version": "v1.0", "launch": "5eb87d46ffd86e000604b389", "longitude": -33.13923043650699, "latitude": -15.685819580888928, "height_km": 404.4904047088494, "velocity_kms": 7.6686287152525665, "id": "5eed7716096e59000698580c"}, {"spaceTrack": {"CCSDS_OMM_VERS": "2.0", "COMMENT": "GENERATED VIA SPACE-TRACK.ORG API", "CREATION_DATE": "2020-08-23 22:36:09", "ORIGINATOR": "18 SPCS", "OBJECT_NAME": "STARLINK-1391", "OBJECT_ID": "2020-038W", "CENTER_NAME": "EARTH", "REF_FRAME": "TEME", "TIME_SYSTEM": "UTC", "MEAN_ELEMENT_THEORY": "SGP4", "EPOCH": "2020-08-23 22:00:00.999936", "MEAN_MOTION": 15.58300598, "ECCENTRICITY": 0.0001009, "INCLINATION": 53.0003, "RA_OF_ASC_NODE": 305.8608, "ARG_OF_PERICENTER": 37.9728, "MEAN_ANOMALY": 295.5506, "EPHEMERIS_TYPE": 0, "CLASSIFICATION_TYPE": "U", "NORAD_CAT_ID": 45750, "ELEMENT_SET_NO": 999, "REV_AT_EPOCH": 1251, "BSTAR": -0.015524, "MEAN_MOTION_DOT": -0.01087554, "MEAN_MOTION_DDOT": 0, "SEMIMAJOR_AXIS": 6770.712, "PERIOD": 92.408, "APOAPSIS": 393.26, "PERIAPSIS": 391.893, "OBJECT_TYPE": "PAYLOAD", "RCS_SIZE": "LARGE", "COUNTRY_CODE": "US", "LAUNCH_DATE": "2020-06-13", "SITE": "AFETR", "DECAY_DATE": null, "DECAYED": 0, "FILE": 2807260, "GP_ID": 159985861, "TLE_LINE0": "0 STARLINK-1391", "TLE_LINE1": "1 45750U 20038W   20236.91667824 -.01087554  00000-0 -15524-1 0  9990", "TLE_LINE2": "2 45750  53.0003 305.8608 0001009  37.9728 295.5506 15.58300598 12515"}, "version": "v1.0", "launch": "5eb87d46ffd86e000604b389", "longitude": -30.40512765875189, "latitude": -12.314760747930755, "height_km": 395.91450924524906, "velocity_kms": 7.67351925498155, "id": "5eed7716096e59000698580d"}, {"spaceTrack": {"CCSDS_OMM_VERS": "2.0", "COMMENT": "GENERATED VIA SPACE-TRACK.ORG API", "CREATION_DATE": "2020-08-23 22:36:09", "ORIGINATOR": "18 SPCS", "OBJECT_NAME": "STARLINK-1492", "OBJECT_ID": "2020-038BB", "CENTER_NAME": "EARTH", "REF_FRAME": "TEME", "TIME_SYSTEM": "UTC", "MEAN_ELEMENT_THEORY": "SGP4", "EPOCH": "2020-08-23 22:00:00.999936", "MEAN_MOTION": 15.62788785, "ECCENTRICITY": 0.0001843, "INCLINATION": 52.9975, "RA_OF_ASC_NODE": 305.8168, "ARG_OF_PERICENTER": 34.8317, "MEAN_ANOMALY": 302.58, "EPHEMERIS_TYPE": 0, "CLASSIFICATION_TYPE": "U", "NORAD_CAT_ID": 45779, "ELEMENT_SET_NO": 999, "REV_AT_EPOCH": 1251, "BSTAR": -3.2897e-05, "MEAN_MOTION_DOT": -3.551e-05, "MEAN_MOTION_DDOT": 0, "SEMIMAJOR_AXIS": 6757.742, "PERIOD": 92.142, "APOAPSIS": 380.853, "PERIAPSIS": 378.362, "OBJECT_TYPE": "PAYLOAD", "RCS_SIZE": "LARGE", "COUNTRY_CODE": "US", "LAUNCH_DATE": "2020-06-13", "SITE": "AFETR", "DECAY_DATE": null, "DECAYED": 0, "FILE": 2807265, "GP_ID": 159986426, "TLE_LINE0": "0 STARLINK-1492", "TLE_LINE1": "1 45779U 20038BB  20236.91667824 -.00003551  00000-0 -32897-4 0  9990", "TLE_LINE2": "2 45779  52.9975 305.8168 0001843  34.8317 302.5800 15.62788785 12518"}, "version": "v1.0", "launch": "5eb87d46ffd86e000604b389", "longitude": -27.354780641427347, "latitude": -8.353704843056555, "height_km": 381.08177590951436, "velocity_kms": 7.6824244677169915, "id": "5eed7716096e59000698580e"}, {"spaceTrack": {"CCSDS_OMM_VERS": "2.0", "COMMENT": "GENERATED VIA SPACE-TRACK.ORG API", "CREATION_DATE": "2020-08-23 14:46:10", "ORIGINATOR": "18 SPCS", "OBJECT_NAME": "STARLINK-1491", "OBJECT_ID": "2020-038BA", "CENTER_NAME": "EARTH", "REF_FRAME": "TEME", "TIME_SYSTEM": "UTC", "MEAN_ELEMENT_THEORY": "SGP4", "EPOCH": "2020-08-23 14:00:01.999872", "MEAN_MOTION": 15.62762803, "ECCENTRICITY": 0.0002138, "INCLINATION": 52.9977, "RA_OF_ASC_NODE": 307.4628, "ARG_OF_PERICENTER": 33.0948, "MEAN_ANOMALY": 222.8653, "EPHEMERIS_TYPE": 0, "CLASSIFICATION_TYPE": "U", "NORAD_CAT_ID": 45778, "ELEMENT_SET_NO": 999, "REV_AT_EPOCH": 1246, "BSTAR": 0.00049704, "MEAN_MOTION_DOT": 0.0004525, "MEAN_MOTION_DDOT": 0, "SEMIMAJOR_AXIS": 6757.817, "PERIOD": 92.144, "APOAPSIS": 381.127, "PERIAPSIS": 378.237, "OBJECT_TYPE": "PAYLOAD", "RCS_SIZE": "LARGE", "COUNTRY_CODE": "US", "LAUNCH_DATE": "2020-06-13", "SITE": "AFETR", "DECAY_DATE": null, "DECAYED": 0, "FILE": 2807063, "GP_ID": 159940211, "TLE_LINE0": "0 STARLINK-1491", "TLE_LINE1": "1 45778U 20038BA  20236.58335648  .00045250  00000-0  49704-3 0  9992", "TLE_LINE2": "2 45778  52.9977 307.4628 0002138  33.0948 222.8653 15.62762803 12464"}, "version": "v1.0", "launch": "5eb87d46ffd86e000604b389", "longitude": -30.50931731395241, "latitude": -12.402559329120978, "height_km": 381.9603637513328, "velocity_kms": 7.68173664665854, "id": "5eed7716096e59000698580f"}, {"spaceTrack": {"CCSDS_OMM_VERS": "2.0", "COMMENT": "GENERATED VIA SPACE-TRACK.ORG API", "CREATION_DATE": "2020-08-23 22:36:09", "ORIGINATOR": "18 SPCS", "OBJECT_NAME": "STARLINK-1496", "OBJECT_ID": "2020-038BC", "CENTER_NAME": "EARTH", "REF_FRAME": "TEME", "TIME_SYSTEM": "UTC", "MEAN_ELEMENT_THEORY": "SGP4", "EPOCH": "2020-08-23 22:00:00.999936", "MEAN_MOTION": 15.62785897, "ECCENTRICITY": 0.0002289, "INCLINATION": 52.9994, "RA_OF_ASC_NODE": 305.7385, "ARG_OF_PERICENTER": 23.1289, "MEAN_ANOMALY": 355.0957, "EPHEMERIS_TYPE": 0, "CLASSIFICATION_TYPE": "U", "NORAD_CAT_ID": 45780, "ELEMENT_SET_NO": 999, "REV_AT_EPOCH": 1232, "BSTAR": -0.00036503, "MEAN_MOTION_DOT": -0.00033867, "MEAN_MOTION_DDOT": 0, "SEMIMAJOR_AXIS": 6757.751, "PERIOD": 92.143, "APOAPSIS": 381.162, "PERIAPSIS": 378.069, "OBJECT_TYPE": "PAYLOAD", "RCS_SIZE": "LARGE", "COUNTRY_CODE": "US", "LAUNCH_DATE": "2020-06-13", "SITE": "AFETR", "DECAY_DATE": null, "DECAYED": 0, "FILE": 2807265, "GP_ID": 159985928, "TLE_LINE0": "0 STARLINK-1496", "TLE_LINE1": "1 45780U 20038BC  20236.91667824 -.00033867  00000-0 -36503-3 0  9992", "TLE_LINE2": "2 45780  52.9994 305.7385 0002289  23.1289 355.0957 15.62785897 12321"}, "version": "v1.0", "launch": "5eb87d46ffd86e000604b389", "longitude": -1.6070727113983057, "latitude": 24.022992982951177, "height_km": 378.9513295768875, "velocity_kms": 7.686762710747501, "id": "5eed7716096e590006985810"}, {"spaceTrack": {"CCSDS_OMM_VERS": "2.0", "COMMENT": "GENERATED VIA SPACE-TRACK.ORG API", "CREATION_DATE": "2020-08-23 22:36:09", "ORIGINATOR": "18 SPCS", "OBJECT_NAME": "STARLINK-1501", "OBJECT_ID": "2020-038AK", "CENTER_NAME": "EARTH", "REF_FRAME": "TEME", "TIME_SYSTEM": "UTC", "MEAN_ELEMENT_THEORY": "SGP4", "EPOCH": "2020-08-23 22:00:00.999936", "MEAN_MOTION": 15.59190363, "ECCENTRICITY": 0.000104, "INCLINATION": 53.0001, "RA_OF_ASC_NODE": 305.8283, "ARG_OF_PERICENTER": 17.2607, "MEAN_ANOMALY": 334.3885, "EPHEMERIS_TYPE": 0, "CLASSIFICATION_TYPE": "U", "NORAD_CAT_ID": 45763, "ELEMENT_SET_NO": 999, "REV_AT_EPOCH": 1232, "BSTAR": -0.015034, "MEAN_MOTION_DOT": -0.01089404, "MEAN_MOTION_DDOT": 0, "SEMIMAJOR_AXIS": 6768.136, "PERIOD": 92.355, "APOAPSIS": 390.704, "PERIAPSIS": 389.297, "OBJECT_TYPE": "PAYLOAD", "RCS_SIZE": "LARGE", "COUNTRY_CODE": "US", "LAUNCH_DATE": "2020-06-13", "SITE": "AFETR", "DECAY_DATE": null, "DECAYED": 0, "FILE": 2807267, "GP_ID": 159986442, "TLE_LINE0": "0 STARLINK-1501", "TLE_LINE1": "1 45763U 20038AK  20236.91667824 -.01089404  00000-0 -15034-1 0  9996", "TLE_LINE2": "2 45763  53.0001 305.8283 0001040  17.2607 334.3885 15.59190363 12327"}, "version": "v1.0", "launch": "5eb87d46ffd86e000604b389", "longitude": -19.236047207871223, "latitude": 2.3850791720731075, "height_km": 390.37781858179187, "velocity_kms": 7.677764615873361, "id": "5eed7716096e590006985811"}, {"spaceTrack": {"CCSDS_OMM_VERS": "2.0", "COMMENT": "GENERATED VIA SPACE-TRACK.ORG API", "CREATION_DATE": "2020-08-23 22:36:09", "ORIGINATOR": "18 SPCS", "OBJECT_NAME": "STARLINK-1510", "OBJECT_ID": "2020-038BG", "CENTER_NAME": "EARTH", "REF_FRAME": "TEME", "TIME_SYSTEM": "UTC", "MEAN_ELEMENT_THEORY": "SGP4", "EPOCH": "2020-08-23 22:00:00.999936", "MEAN_MOTION": 15.62756299, "ECCENTRICITY": 0.0001714, "INCLINATION": 52.9995, "RA_OF_ASC_NODE": 305.7462, "ARG_OF_PERICENTER": 35.8961, "MEAN_ANOMALY": 334.6435, "EPHEMERIS_TYPE": 0, "CLASSIFICATION_TYPE": "U", "NORAD_CAT_ID": 45784, "ELEMENT_SET_NO": 999, "REV_AT_EPOCH": 1232, "BSTAR": -6.5836e-06, "MEAN_MOTION_DOT": -1.138e-05, "MEAN_MOTION_DDOT": 0, "SEMIMAJOR_AXIS": 6757.836, "PERIOD": 92.144, "APOAPSIS": 380.859, "PERIAPSIS": 378.543, "OBJECT_TYPE": "PAYLOAD", "RCS_SIZE": "LARGE", "COUNTRY_CODE": "US", "LAUNCH_DATE": "2020-06-13", "SITE": "AFETR", "DECAY_DATE": null, "DECAYED": 0, "FILE": 2807268, "GP_ID": 159986472, "TLE_LINE0": "0 STARLINK-1510", "TLE_LINE1": "1 45784U 20038BG  20236.91667824 -.00001138  00000-0 -65836-5 0  9995", "TLE_LINE2": "2 45784  52.9995 305.7462 0001714  35.8961 334.6435 15.62756299 12329"}, "version": "v1.0", "launch": "5eb87d46ffd86e000604b389", "longitude": -6.957985661363494, "latitude": 18.067156550435982, "height_km": 378.89821753154047, "velocity_kms": 7.685948733480933, "id": "5eed7716096e590006985812"}]